IRIDIUM 136             
1 42962U 17061H   23256.58684906  .00000154  00000+0  47840-4 0  9998
2 42962  86.3912  86.3534 0002283  92.3498 267.7960 14.34218579310413
